#dP2018  1 14  0  0  0.00000000      96 __u+U IGS08 FIT  IAC
## 1984      0.00000000   900.00000000 58132 0.0000000000000
+   89   C01C02C03C04C05C06C07C08C09C10C11C12C13C14E01E02E03
+        E04E05E07E08E09E11E12E14E18E19E24E26E30G01G02G03G04
+        G05G06G07G08G09G10G11G12G13G14G15G16G17G18G19G20G21
+        G22G23G24G25G26G27G28G29G30G31G32J01J02J03R01R02R03
+        R04R05R06R07R08R09R10R11R13R14R15R16R17R18R19R20R21
+        R22R23R24R26  0  0  0  0  0  0  0  0  0  0  0  0  0
++        12 12 12 12 12  8  8  8  8  8  8  8  8  7  7  7  7
++         7  7  7  7  7  7  7  7  7  7  7  7  7  3  3  3  4
++         3  3  3  3  3  3  3  3  3  3  3  3  3  3  3  3  3
++         3  3  3  3  3  3  3  3  3  3  3  8 12 12  5  5  5
++         5  5  5  5  5  5  5  5  5  5  5  5  5  5  5  5  5
++         5  5  6  8  0  0  0  0  0  0  0  0  0  0  0  0  0
%c M  cc GPS ccc cccc cccc cccc cccc ccccc ccccc ccccc ccccc
%c cc cc ccc ccc cccc cccc cccc cccc ccccc ccccc ccccc ccccc
%f  1.2500000  1.025000000  0.00000000000  0.000000000000000
%f  0.0000000  0.000000000  0.00000000000  0.000000000000000
%i    0    0    0    0      0      0      0      0         0
%i    0    0    0    0      0      0      0      0         0
/* INFORMATION & ANALYSIS CENTER (IAC)            FINAL DATA
/* S/V CLOCKS ARE ALIGNED TO GPS & GLONASS TIME RESPECTIVELY
/* USING THE BROADCAST EPHEMERIS                            
/* PCV:IGS14_1977 OL/AL:FES2004  NONE     YN ORB:CoN CLK:CoN
*  2018 01 14  7  0  0.00000000
PC01 -32329.395787  27082.202314   -297.422819    237.403665
PC02   4381.299751  41916.212155   -768.822656   -152.968050
PC03 -14749.644623  39453.678336  -1035.998143   -287.519714
PC04 -39653.294257  14364.866090   -511.733809   -191.819661
PC05  21884.161788  36001.693264   -918.511154   -120.113090
PC06 -24311.254961  28353.578713  19485.432863   -673.531042
PC07 -12712.124803  36861.245985  16680.872032   -273.959013
PC08 -10019.696889  19933.793006 -35699.593359    113.143283
PC09 -10452.237051  28169.456893  29594.884782   -504.759038
PC10  -2315.953078  42153.109127   3429.862929     57.304765
PC11  20562.551809  12486.172441 -14011.895845   -352.005824
PC12    235.710967  15576.907045 -23086.447654    371.176481
PC13   4492.427153  27714.772872 -31367.314292   -145.106517
PC14   9168.373655  13954.722348  22397.203900    140.101753
PE01  -8221.780558 -26269.878818  10891.578407   -252.731451
PE02   8230.134825  26250.852501 -10904.456247      1.674025
PE03   7840.281780  15324.166182  24075.824032     12.744087
PE04 -23549.953188   -275.782033 -17930.519375     44.367565
PE05 -12497.666529  21433.229958  16136.051211    342.034975
PE07  25489.395418 -14993.463767   1229.796248    102.257132
PE08  23471.542910    -23.440824  18027.021796   6661.679104
PE09 -25359.876378  15222.308702  -1301.630822   6903.995346
PE11 -20650.285987   5008.307930 -20598.486692   1853.445939
PE12 -27311.847462 -10208.039533  -5052.838962   3277.758376
PE14  28380.550970  -2252.189802   1011.132475   6648.152830
PE18 -21358.504519  12931.178108 -14786.262391   6505.250417
PE19  -5869.772943 -16286.867965 -24013.998184     18.334102
PE24 -13928.872787  13786.777480  22170.129738   6917.465021
PE26   2194.811563 -17232.642158  23975.684519   6387.981996
PE30  15701.258057   8756.111605 -23516.880637   6161.633458
PG01  19729.211730   9232.861072  15256.338452    -23.460672
PG02 -13414.948612 -22534.923412   5617.547309    228.691840
PG03  16329.669438   -920.807065  20896.094131    -10.195537
PG04  -7469.628768  24772.037872  -5518.451722     31.670310
PG05  -6041.343197 -18838.873162 -17724.878140    -17.008363
PG06  -3694.571921 -21813.987019  14713.598521    414.746794
PG07  13924.482087  -6408.371868 -21518.244055    251.788775
PG08  22326.616674   6207.274471 -13037.045122    -87.605644
PG09  23881.370267  -8644.774752  -7826.064400    492.874522
PG10 -10577.787937  24274.049548   -187.450237    145.733453
PG11  24252.394529   7844.308222   6663.717174   -733.921036
PG12 -14804.312835  -2480.651735  21717.540240    355.570766
PG13 -15287.309647 -12395.630435 -17948.457358    -95.320551
PG14  -1141.401346  15362.570098  21908.108405    -92.350846
PG15 -23560.054014  -4538.901248 -12004.744859   -357.356376
PG16   4239.153537  18303.455046 -18729.348492     34.083270
PG17  11182.925803 -14062.244202  19898.941730   -130.995922
PG18 -15146.508762  18871.546147 -10155.783046    633.562137
PG19   3311.407183 -14622.494093  21663.249542   -463.804324
PG20 -16240.838907  -1119.866206 -21131.961412    498.250943
PG21 -11853.022694   9562.162410 -20970.646661   -441.961879
PG22  14492.087247   7158.277631  21313.203534   -256.330512
PG23  26543.848964   -571.137376   3842.857733   -219.082582
PG24 -20657.222257 -11225.166039  12519.475576    -44.744231
PG25 -17145.394389  11616.530508  16332.369636   -522.052586
PG26  -2555.813814  24439.283978  -9917.322763   -288.092833
PG27  11293.137167  12650.429597 -20562.941189    362.440924
PG28  13792.537196 -22537.498308  -2233.444444    679.685200
PG29 -25909.935358   4149.673359  -4076.330551    511.388786
PG30   7445.180205 -15337.505667 -20326.161705    112.684922
PG31   3653.496405  22149.520451  13906.121871    148.760580
PG32  -9889.467522  15064.902279  19509.924432   -532.795541
PJ01 -24928.617517  32253.016477  -6210.662754   -156.456465
PJ02 -23255.269821  24241.484940  30078.636799      0.012918
PJ03 -34013.693146  20644.284897  -9424.484080     -0.235121
PR01  15043.037645 -18948.894333  -8063.675963     20.644891
PR02   -478.729242 -13324.145287 -21726.216999    290.089767
PR03 -14824.711358    -85.586800 -20715.268739    121.313854
PR04 -20389.461347  13503.819710  -7217.055665    245.931832
PR05 -14000.969554  19043.456650   9586.466785   -229.623666
PR06   1641.863224  12884.947218  21930.172646    125.117886
PR07  15112.255346   -245.751758  20583.586507    -27.425005
PR08  20452.698349 -13059.924899   7905.995444    -26.996356
PR09   6587.163415  24336.569307  -4065.527936     47.794755
PR10  11332.447781  12443.693532 -19215.654040     15.883830
PR11   9592.287917  -6989.834383 -22558.506812    -19.355089
PR13  -7372.907452 -23910.643516   4944.715200     -6.504308
PR14 -11533.386015 -12613.573666  18946.425807     23.837367
PR15 -10216.005902   3107.005320  23171.195595     -5.184504
PR16  -1893.884760  21594.073222  13329.183908     83.236707
PR17 -23560.266132  -9433.281230   2766.302107    100.886051
PR18 -21449.191225   -683.211028 -13721.890870    181.020746
PR19  -7280.602131   8425.083361 -22943.110363    -41.163204
PR20  12233.008486  13179.427571 -18102.201890   -323.326441
PR21  23611.557739   9278.184754  -2524.330720     18.780543
PR22  20585.889010   -211.092977  15158.110598    -10.117183
PR23   3731.354210  -9899.976105  23208.955192    130.170299
PR24 -12953.857631 -12981.405775  17705.336652   -161.059592
PR26  12379.086850  12964.166065 -18120.765123     -6.859427
EOF
